{"type": "FeatureCollection", "features": [ {"type": "Feature", "properties": {"norad_id": 34031, "name": "COSMOS 2251 DEB", "group": "cosmos-2251-debris", "lat": 22.553008849429652, "lon": 116.186107712609, "alt_km": 707.5513695389454, "timestamp": "2025-12-26T12:57:39.665739+00:00", "meta": {"OBJECT_NAME": "COSMOS 2251 DEB", "OBJECT_ID": "1993-036HS", "EPOCH": "2025-12-26T03:15:28.497600", "MEAN_MOTION": 14.5984019, "ECCENTRICITY": 0.00228376, "INCLINATION": 74.013, "RA_OF_ASC_NODE": 110.1202, "ARG_OF_PERICENTER": 230.0388, "MEAN_ANOMALY": 189.5871, "EPHEMERIS_TYPE": 0, "CLASSIFICATION_TYPE": "U", "NORAD_CAT_ID": 34031, "ELEMENT_SET_NO": 999, "REV_AT_EPOCH": 88761, "BSTAR": 0.0012993964, "MEAN_MOTION_DOT": 6.212e-05, "MEAN_MOTION_DDOT": 0}, "tle": {"line1": "1 34031U 93036HS  25360.13574650  .00006212  00000+0  12994-2 0  9996", "line2": "2 34031  74.0130 110.1202 0022837 230.0388 189.5871 14.59840190887611"}}, "geometry": {"type": "Point", "coordinates": [116.186107712609, 22.553008849429652]}}, {"type": "Feature", "properties": {"norad_id": 34035, "name": "COSMOS 2251 DEB", "group": "cosmos-2251-debris", "lat": 16.890557996983574, "lon": 138.20782797953834, "alt_km": 749.0900499565078, "timestamp": "2025-12-26T12:57:39.665749+00:00", "meta": {"OBJECT_NAME": "COSMOS 2251 DEB", "OBJECT_ID": "1993-036HW", "EPOCH": "2025-12-26T02:53:03.375744", "MEAN_MOTION": 14.52117013, "ECCENTRICITY": 0.00453041, "INCLINATION": 74.0662, "RA_OF_ASC_NODE": 323.9736, "ARG_OF_PERICENTER": 323.0556, "MEAN_ANOMALY": 165.4295, "EPHEMERIS_TYPE": 0, "CLASSIFICATION_TYPE": "U", "NORAD_CAT_ID": 34035, "ELEMENT_SET_NO": 999, "REV_AT_EPOCH": 88160, "BSTAR": 0.0018301769, "MEAN_MOTION_DOT": 7.491e-05, "MEAN_MOTION_DDOT": 0}, "tle": {"line1": "1 34035U 93036HW  25360.12017796  .00007491  00000+0  18302-2 0  9991", "line2": "2 34035  74.0662 323.9736 0045304 323.0556 165.4295 14.52117013881605"}}, "geometry": {"type": "Point", "coordinates": [138.20782797953834, 16.890557996983574]}}, {"type": "Feature", "properties": {"norad_id": 34036, "name": "COSMOS 2251 DEB", "group": "cosmos-2251-debris", "lat": 56.616376535592025, "lon": 147.16652500935854, "alt_km": 572.8329487625051, "timestamp": "2025-12-26T12:57:39.665760+00:00", "meta": {"OBJECT_NAME": "COSMOS 2251 DEB", "OBJECT_ID": "1993-036HX", "EPOCH": "2025-12-26T03:03:46.607328", "MEAN_MOTION": 14.96048397, "ECCENTRICITY": 0.00094782, "INCLINATION": 74.0197, "RA_OF_ASC_NODE": 122.2227, "ARG_OF_PERICENTER": 147.7434, "MEAN_ANOMALY": 212.4333, "EPHEMERIS_TYPE": 0, "CLASSIFICATION_TYPE": "U", "NORAD_CAT_ID": 34036, "ELEMENT_SET_NO": 999, "REV_AT_EPOCH": 88770, "BSTAR": 0.0038363862, "MEAN_MOTION_DOT": 0.00043366, "MEAN_MOTION_DDOT": 0}, "tle": {"line1": "1 34036U 93036HX  25360.12762277  .00043366  00000+0  38364-2 0  9994", "line2": "2 34036  74.0197 122.2227 0009478 147.7434 212.4333 14.96048397887701"}}, "geometry": {"type": "Point", "coordinates": [147.16652500935854, 56.616376535592025]}}, {"type": "Feature", "properties": {"norad_id": 34037, "name": "COSMOS 2251 DEB", "group": "cosmos-2251-debris", "lat": -18.881853376772135, "lon": 19.57109050115437, "alt_km": 780.8857198133337, "timestamp": "2025-12-26T12:57:39.665770+00:00", "meta": {"OBJECT_NAME": "COSMOS 2251 DEB", "OBJECT_ID": "1993-036HY", "EPOCH": "2025-12-26T04:41:05.392320", "MEAN_MOTION": 14.34698199, "ECCENTRICITY": 0.00518189, "INCLINATION": 74.0508, "RA_OF_ASC_NODE": 25.815, "ARG_OF_PERICENTER": 71.6242, "MEAN_ANOMALY": 289.0535, "EPHEMERIS_TYPE": 0, "CLASSIFICATION_TYPE": "U", "NORAD_CAT_ID": 34037, "ELEMENT_SET_NO": 999, "REV_AT_EPOCH": 87910, "BSTAR": 0.00044199001, "MEAN_MOTION_DOT": 1.245e-05, "MEAN_MOTION_DDOT": 0}, "tle": {"line1": "1 34037U 93036HY  25360.19520130  .00001245  00000+0  44199-3 0  9996", "line2": "2 34037  74.0508  25.8150 0051818  71.6242 289.0535 14.34698199879100"}}, "geometry": {"type": "Point", "coordinates": [19.57109050115437, -18.881853376772135]}}, {"type": "Feature", "properties": {"norad_id": 34040, "name": "COSMOS 2251 DEB", "group": "cosmos-2251-debris", "lat": -0.034289863905559874, "lon": -136.93076790608245, "alt_km": 1259.8670984958135, "timestamp": "2025-12-26T12:57:39.665780+00:00", "meta": {"OBJECT_NAME": "COSMOS 2251 DEB", "OBJECT_ID": "1993-036JB", "EPOCH": "2025-12-26T05:03:44.878176", "MEAN_MOTION": 13.6839858, "ECCENTRICITY": 0.03434797, "INCLINATION": 73.9554, "RA_OF_ASC_NODE": 43.603, "ARG_OF_PERICENTER": 354.25, "MEAN_ANOMALY": 5.4712, "EPHEMERIS_TYPE": 0, "CLASSIFICATION_TYPE": "U", "NORAD_CAT_ID": 34040, "ELEMENT_SET_NO": 999, "REV_AT_EPOCH": 83784, "BSTAR": 0.0008461778, "MEAN_MOTION_DOT": 1.069e-05, "MEAN_MOTION_DDOT": 0}, "tle": {"line1": "1 34040U 93036JB  25360.21093609  .00001069  00000+0  84618-3 0  9993", "line2": "2 34040  73.9554  43.6030 0343479 354.2500   5.4712 13.68398580837841"}}, "geometry": {"type": "Point", "coordinates": [-136.93076790608245, -0.034289863905559874]}}, {"type": "Feature", "properties": {"norad_id": 34045, "name": "COSMOS 2251 DEB", "group": "cosmos-2251-debris", "lat": -4.578659152152815, "lon": -75.73232219702956, "alt_km": 762.8389605163993, "timestamp": "2025-12-26T12:57:39.665790+00:00", "meta": {"OBJECT_NAME": "COSMOS 2251 DEB", "OBJECT_ID": "1993-036JG", "EPOCH": "2025-12-26T04:56:08.256768", "MEAN_MOTION": 14.34076289, "ECCENTRICITY": 0.00262253, "INCLINATION": 74.0396, "RA_OF_ASC_NODE": 286.1925, "ARG_OF_PERICENTER": 6.0815, "MEAN_ANOMALY": 63.6633, "EPHEMERIS_TYPE": 0, "CLASSIFICATION_TYPE": "U", "NORAD_CAT_ID": 34045, "ELEMENT_SET_NO": 999, "REV_AT_EPOCH": 88226, "BSTAR": 0.00010118791, "MEAN_MOTION_DOT": 2.58e-06, "MEAN_MOTION_DDOT": 0}, "tle": {"line1": "1 34045U 93036JG  25360.20565112  .00000258  00000+0  10119-3 0  9994", "line2": "2 34045  74.0396 286.1925 0026225   6.0815  63.6633 14.34076289882264"}}, "geometry": {"type": "Point", "coordinates": [-75.73232219702956, -4.578659152152815]}}, {"type": "Feature", "properties": {"norad_id": 34046, "name": "COSMOS 2251 DEB", "group": "cosmos-2251-debris", "lat": -58.52536438218249, "lon": -167.42653165883175, "alt_km": 796.6193617993613, "timestamp": "2025-12-26T12:57:39.665801+00:00", "meta": {"OBJECT_NAME": "COSMOS 2251 DEB", "OBJECT_ID": "1993-036JH", "EPOCH": "2025-12-25T22:40:20.639712", "MEAN_MOTION": 14.46580903, "ECCENTRICITY": 0.0074571, "INCLINATION": 74.0399, "RA_OF_ASC_NODE": 345.8148, "ARG_OF_PERICENTER": 65.3438, "MEAN_ANOMALY": 317.8928, "EPHEMERIS_TYPE": 0, "CLASSIFICATION_TYPE": "U", "NORAD_CAT_ID": 34046, "ELEMENT_SET_NO": 999, "REV_AT_EPOCH": 88017, "BSTAR": 0.0013151, "MEAN_MOTION_DOT": 4.884e-05, "MEAN_MOTION_DDOT": 0}, "tle": {"line1": "1 34046U 93036JH  25359.94468333  .00004884  00000+0  13151-2 0  9998", "line2": "2 34046  74.0399 345.8148 0074571  65.3438 317.8928 14.46580903880179"}}, "geometry": {"type": "Point", "coordinates": [-167.42653165883175, -58.52536438218249]}}, {"type": "Feature", "properties": {"norad_id": 34050, "name": "COSMOS 2251 DEB", "group": "cosmos-2251-debris", "lat": 35.602501425405784, "lon": 154.59421906669243, "alt_km": 915.6977387968363, "timestamp": "2025-12-26T12:57:39.665811+00:00", "meta": {"OBJECT_NAME": "COSMOS 2251 DEB", "OBJECT_ID": "1993-036JM", "EPOCH": "2025-12-25T11:04:48.351072", "MEAN_MOTION": 13.96210406, "ECCENTRICITY": 0.0214837, "INCLINATION": 74.0883, "RA_OF_ASC_NODE": 348.2285, "ARG_OF_PERICENTER": 49.3018, "MEAN_ANOMALY": 72.7253, "EPHEMERIS_TYPE": 0, "CLASSIFICATION_TYPE": "U", "NORAD_CAT_ID": 34050, "ELEMENT_SET_NO": 999, "REV_AT_EPOCH": 85609, "BSTAR": 0.0007946, "MEAN_MOTION_DOT": 1.304e-05, "MEAN_MOTION_DDOT": 0}, "tle": {"line1": "1 34050U 93036JM  25359.46167073  .00001304  00000+0  79460-3 0  9997", "line2": "2 34050  74.0883 348.2285 0214837  49.3018  72.7253 13.96210406856092"}}, "geometry": {"type": "Point", "coordinates": [154.59421906669243, 35.602501425405784]}}, {"type": "Feature", "properties": {"norad_id": 34053, "name": "COSMOS 2251 DEB", "group": "cosmos-2251-debris", "lat": -60.864940890212964, "lon": -171.40511865362882, "alt_km": 970.6640299852324, "timestamp": "2025-12-26T12:57:39.665822+00:00", "meta": {"OBJECT_NAME": "COSMOS 2251 DEB", "OBJECT_ID": "1993-036JQ", "EPOCH": "2025-12-26T00:48:30.650112", "MEAN_MOTION": 13.49180392, "ECCENTRICITY": 0.04229219, "INCLINATION": 73.8426, "RA_OF_ASC_NODE": 220.7488, "ARG_OF_PERICENTER": 7.1165, "MEAN_ANOMALY": 353.5688, "EPHEMERIS_TYPE": 0, "CLASSIFICATION_TYPE": "U", "NORAD_CAT_ID": 34053, "ELEMENT_SET_NO": 999, "REV_AT_EPOCH": 82863, "BSTAR": 0.00052812658, "MEAN_MOTION_DOT": 5.55e-06, "MEAN_MOTION_DDOT": 0}, "tle": {"line1": "1 34053U 93036JQ  25360.03368808  .00000555  00000+0  52813-3 0  9994", "line2": "2 34053  73.8426 220.7488 0422921   7.1165 353.5688 13.49180392828633"}}, "geometry": {"type": "Point", "coordinates": [-171.40511865362882, -60.864940890212964]}}, {"type": "Feature", "properties": {"norad_id": 34056, "name": "COSMOS 2251 DEB", "group": "cosmos-2251-debris", "lat": 52.22561543319288, "lon": 73.34377380608632, "alt_km": 749.9438479490573, "timestamp": "2025-12-26T12:57:39.665841+00:00", "meta": {"OBJECT_NAME": "COSMOS 2251 DEB", "OBJECT_ID": "1993-036JT", "EPOCH": "2025-12-26T06:15:56.548224", "MEAN_MOTION": 14.20601985, "ECCENTRICITY": 0.0123681, "INCLINATION": 74.058, "RA_OF_ASC_NODE": 52.1988, "ARG_OF_PERICENTER": 96.4766, "MEAN_ANOMALY": 333.6531, "EPHEMERIS_TYPE": 0, "CLASSIFICATION_TYPE": "U", "NORAD_CAT_ID": 34056, "ELEMENT_SET_NO": 999, "REV_AT_EPOCH": 86603, "BSTAR": 0.00072439943, "MEAN_MOTION_DOT": 1.66e-05, "MEAN_MOTION_DDOT": 0}, "tle": {"line1": "1 34056U 93036JT  25360.26107116  .00001660  00000+0  72440-3 0  9991", "line2": "2 34056  74.0580  52.1988 0123681  96.4766 333.6531 14.20601985866039"}}, "geometry": {"type": "Point", "coordinates": [73.34377380608632, 52.22561543319288]}}]}